{
    "links": {
        "self": "http://www.neowsapp.com/rest/v1/neo/3788076?api_key=iIulBulltgU6a56xZRHN4H3l9WmuAYTsLGpBGhQ2"
    },
    "id": "3788076",
    "neo_reference_id": "3788076",
    "name": "(2017 UM6)",
    "designation": "2017 UM6",
    "nasa_jpl_url": "http://ssd.jpl.nasa.gov/sbdb.cgi?sstr=3788076",
    "absolute_magnitude_h": 22.0,
    "estimated_diameter": {
        "kilometers": {
            "estimated_diameter_min": 0.1058168859,
            "estimated_diameter_max": 0.2366137501
        },
        "meters": {
            "estimated_diameter_min": 105.8168859331,
            "estimated_diameter_max": 236.6137501138
        },
        "miles": {
            "estimated_diameter_min": 0.0657515442,
            "estimated_diameter_max": 0.1470249225
        },
        "feet": {
            "estimated_diameter_min": 347.1682720448,
            "estimated_diameter_max": 776.2918559233
        }
    },
    "is_potentially_hazardous_asteroid": false,
    "close_approach_data": [
        {
            "close_approach_date": "2017-10-17",
            "close_approach_date_full": "2017-Oct-17 02:26",
            "epoch_date_close_approach": 1508207160000,
            "relative_velocity": {
                "kilometers_per_second": "17.7290178385",
                "kilometers_per_hour": "63824.4642187598",
                "miles_per_hour": "39658.04000304"
            },
            "miss_distance": {
                "astronomical": "0.2175898719",
                "lunar": "84.6424601691",
                "kilometers": "32550981.369812853",
                "miles": "20226241.9199012514"
            },
            "orbiting_body": "Earth"
        }
    ],
    "orbital_data": {
        "orbit_id": "1",
        "orbit_determination_date": "2017-10-28 15:31:10",
        "first_observation_date": "2017-10-24",
        "last_observation_date": "2017-10-28",
        "data_arc_in_days": 4,
        "observations_used": 43,
        "orbit_uncertainty": "9",
        "minimum_orbit_intersection": ".120066",
        "jupiter_tisserand_invariant": "3.004",
        "epoch_osculation": "2458051.5",
        "eccentricity": ".5745996685090976",
        "semi_major_axis": "2.594205162623069",
        "inclination": "30.2423110272258",
        "ascending_node_longitude": "14.51313000331375",
        "orbital_period": "1526.177005168467",
        "perihelion_distance": "1.103575736135264",
        "perihelion_argument": "17.01925782276556",
        "aphelion_distance": "4.084834589110875",
        "perihelion_time": "2458060.243693224592",
        "mean_anomaly": "357.9375068879997",
        "mean_motion": ".2358835172990052",
        "equinox": "J2000",
        "orbit_class": {
            "orbit_class_type": "AMO",
            "orbit_class_description": "Near-Earth asteroid orbits similar to that of 1221 Amor",
            "orbit_class_range": "1.017 AU < q (perihelion) < 1.3 AU"
        }
    },
    "is_sentry_object": false
}